BEESAT-4                
1 41619U 16040W   21049.38522631  .00001670  00000-0  69790-4 0  9997
2 41619  97.2872 108.7498 0011745  40.0116 320.1985 15.24920406246862
CAS-2T & KS-1Q          
1 41847U 16066G   21049.78399372  .00000066  00000-0  20700-4 0  9992
2 41847  98.6195 108.3286 0364923 214.3865 143.3214 14.38146639224829
NAYIF-1 (EO-88)         
1 42017U 17008BX  21049.42947893  .00001911  00000-0  73693-4 0  9996
2 42017  97.3307 119.1286 0006674 157.1822 202.9715 15.27509990223080
ZHUHAI-1 02 (CAS-4B)    
1 42759U 17034B   21049.58117647  .00000354  00000-0  34721-4 0  9990
2 42759  43.0168 114.5339 0008117 144.0704   4.4707 15.10073771203171
ZHUHAI-1 01 (CAS-4A)    
1 42761U 17034D   21049.57805753  .00000368  00000-0  35514-4 0  9990
2 42761  43.0177 113.6897 0008954 147.5361 357.7655 15.10154881203177
MAX VALIER SAT          
1 42778U 17036P   21049.41610743  .00000993  00000-0  44827-4 0  9997
2 42778  97.2729 101.8459 0010725 230.4737 129.5553 15.23216087203162
RADFXSAT (FOX-1B)       
1 43017U 17073E   21049.29699248  .00000898  00000-0  75050-4 0  9994
2 43017  97.7156 317.9675 0255097 329.3646  29.2876 14.79322207175500
FOX-1D (AO-92)          
1 43137U 18004AC  21049.76896593  .00001156  00000-0  49474-4 0  9995
2 43137  97.4190 124.9825 0007282 268.7253  91.3150 15.24810955172563
DIWATA-2B               
1 43678U 18084H   21049.79364030  .00000286  00000-0  34131-4 0  9999
2 43678  97.9068 174.5965 0011507  84.2360 276.0147 14.91710800125740
ES'HAIL 2               
1 43700U 18090A   21049.43104949  .00000146  00000-0  00000-0 0  9993
2 43700   0.0148 119.5303 0002108 242.7563 327.2620  1.00272719  8178
FOX-1CLIFF (AO-95)      
1 43770U 18099N   21049.46744012  .00000568  00000-0  56765-4 0  9994
2 43770  97.6786 122.2178 0016044  95.9648 264.3402 14.95196605120678
ITASAT 1                
1 43786U 18099AE  21049.74520403  .00000704  00000-0  68567-4 0  9993
2 43786  97.6804 123.0849 0016758  88.8566 271.4575 14.95509276120742
JY1SAT (JO-97)          
1 43803U 18099AX  21049.46002145  .00000314  00000-0  33236-4 0  9992
2 43803  97.6763 122.5737 0016534  89.8798 270.4317 14.95726657120709
UWE-4                   
1 43880U 18111E   21049.45649076 -.00000152  00000-0 -82215-5 0  9995
2 43880  97.6944 319.1822 0012949 137.4252 222.7976 14.96727850117282
PSAT2 (NO-104)          
1 44354U 19036R   21049.54732606  .00011620  00000-0  15829-3 0  9996
2 44354  28.5265 197.7668 0341129  70.1466 293.5558 15.09542721 90954
BRICSAT2 (NO-103)       
1 44355U 19036S   21049.50030747  .00029276  00000-0  35537-3 0  9994
2 44355  28.5258 169.8126 0297015 115.5307 247.6306 15.20992043 91241
JAISAT-1                
1 44419U 19038F   21049.11158499  .00001262  00000-0  74125-4 0  9991
2 44419  97.5735  14.3988 0021515   8.4089 351.7498 15.13383750 89747
DUCHIFAT-3              
1 44854U 19089C   21049.46003688  .00000448  00000-0  42356-4 0  9993
2 44854  36.9679  84.2533 0008925 260.7570  99.2197 14.99331082 65236
RS-44 & BREEZE-KM R/B   
1 44909U 19096E   21049.78998289  .00000028  00000-0  66322-4 0  9990
2 44909  82.5231 191.6405 0217488  10.8423 349.7256 12.79708483 53680
ORBITAL FACTORY 2 (OF-2)
1 45113U 19071C   21049.74560719  .00002096  00000-0  72288-4 0  9995
2 45113  51.6416 252.6862 0012028 221.8487 138.1576 15.34795805 58938
HUSKYSAT-1              
1 45119U 19071J   21049.43623765  .00002675  00000-0  88870-4 0  9995
2 45119  51.6410 253.6188 0011446 217.0466 142.9727 15.34897558 58880
BY70-2                  
1 45857U 20042B   21049.87569550  .00000916  00000-0  13824-3 0  9995
2 45857  97.9933 126.8444 0010419 228.3327 131.6975 14.76692355 34043
SALSAT                  
1 46495U 20068K   21049.59004699 -.00000552  00000-0 -35991-4 0  9997
2 46495  97.6834 347.8722 0018278 109.9863 250.3333 15.03336025 21473
BY70-3                  
1 46839U 20079N   21049.74067759  .00002468  00000-0  80265-4 0  9994
2 46839  97.2524 125.9562 0005473 269.7003 207.1854 15.32821699 16018
RADFXSAT-2 (AO-109)     
1 47311U 21002C   21049.47562763  .00000717  00000-0  43771-4 0  9998
2 47311  60.6868  16.4474 0016712 320.9296  39.0582 15.21251656  4764
